[Satellite]
VERSION=1.1
NAME=TECHSAT 1B (GO-32)
NICKNAME=GO-32
TLE1=1 25397U 98043D   25178.39449177  .00000027  00000-0  31776-4 0  9994
TLE2=2 25397  98.9710 157.8861 0001951 126.9179 233.2178 14.24318796400824
STATUS=0
